CCSDS_OMM_VERS = 2.0
CREATION_DATE  = 
ORIGINATOR     = 

OBJECT_NAME    = SL-14 R/B
OBJECT_ID      = 1986-046B
CENTER_NAME    = EARTH
REF_FRAME      = TEME
TIME_SYSTEM    = UTC
MEAN_ELEMENT_THEORY = SGP/SGP4

EPOCH          = 2026-01-25T23:15:22.802688
MEAN_MOTION    = 14.85545127
ECCENTRICITY   = .00233869
INCLINATION    = 82.4833
RA_OF_ASC_NODE = 120.5468
ARG_OF_PERICENTER = 13.0050
MEAN_ANOMALY   = 347.1764

EPHEMERIS_TYPE = 0
CLASSIFICATION_TYPE = U
NORAD_CAT_ID   = 16792
ELEMENT_SET_NO = 999
REV_AT_EPOCH   = 12006
BSTAR          = .95273588E-4
MEAN_MOTION_DOT = .851E-5
MEAN_MOTION_DDOT = 0

CCSDS_OMM_VERS = 2.0
CREATION_DATE  = 
ORIGINATOR     = 

OBJECT_NAME    = SL-14 R/B
OBJECT_ID      = 1986-055B
CENTER_NAME    = EARTH
REF_FRAME      = TEME
TIME_SYSTEM    = UTC
MEAN_ELEMENT_THEORY = SGP/SGP4

EPOCH          = 2026-01-25T20:21:18.574560
MEAN_MOTION    = 14.85590959
ECCENTRICITY   = .00203152
INCLINATION    = 82.5220
RA_OF_ASC_NODE = 166.9259
ARG_OF_PERICENTER = 112.3602
MEAN_ANOMALY   = 39.1002

EPHEMERIS_TYPE = 0
CLASSIFICATION_TYPE = U
NORAD_CAT_ID   = 16882
ELEMENT_SET_NO = 999
REV_AT_EPOCH   = 11300
BSTAR          = .11757387E-3
MEAN_MOTION_DOT = .1045E-4
MEAN_MOTION_DDOT = 0

CCSDS_OMM_VERS = 2.0
CREATION_DATE  = 
ORIGINATOR     = 

OBJECT_NAME    = AJISAI (EGS)
OBJECT_ID      = 1986-061A
CENTER_NAME    = EARTH
REF_FRAME      = TEME
TIME_SYSTEM    = UTC
MEAN_ELEMENT_THEORY = SGP/SGP4

EPOCH          = 2026-01-26T00:20:05.815680
MEAN_MOTION    = 12.44515243
ECCENTRICITY   = .00112764
INCLINATION    = 50.0062
RA_OF_ASC_NODE = 224.5766
ARG_OF_PERICENTER = 177.3166
MEAN_ANOMALY   = 349.5546

EPHEMERIS_TYPE = 0
CLASSIFICATION_TYPE = U
NORAD_CAT_ID   = 16908
ELEMENT_SET_NO = 999
REV_AT_EPOCH   = 46268
BSTAR          = .10867351E-3
MEAN_MOTION_DOT = -.82E-6
MEAN_MOTION_DDOT = 0

CCSDS_OMM_VERS = 2.0
CREATION_DATE  = 
ORIGINATOR     = 

OBJECT_NAME    = COSMOS 1812
OBJECT_ID      = 1987-003A
CENTER_NAME    = EARTH
REF_FRAME      = TEME
TIME_SYSTEM    = UTC
MEAN_ELEMENT_THEORY = SGP/SGP4

EPOCH          = 2026-01-25T14:11:57.942240
MEAN_MOTION    = 15.88080509
ECCENTRICITY   = .0001205
INCLINATION    = 82.4802
RA_OF_ASC_NODE = 244.1486
ARG_OF_PERICENTER = 32.5972
MEAN_ANOMALY   = 327.5373

EPHEMERIS_TYPE = 0
CLASSIFICATION_TYPE = U
NORAD_CAT_ID   = 17295
ELEMENT_SET_NO = 999
REV_AT_EPOCH   = 13758
BSTAR          = .87116E-3
MEAN_MOTION_DOT = .241849E-2
MEAN_MOTION_DDOT = 0

CCSDS_OMM_VERS = 2.0
CREATION_DATE  = 
ORIGINATOR     = 

OBJECT_NAME    = SL-14 R/B
OBJECT_ID      = 1987-024B
CENTER_NAME    = EARTH
REF_FRAME      = TEME
TIME_SYSTEM    = UTC
MEAN_ELEMENT_THEORY = SGP/SGP4

EPOCH          = 2026-01-25T17:58:02.735328
MEAN_MOTION    = 14.86085536
ECCENTRICITY   = .00192991
INCLINATION    = 82.5303
RA_OF_ASC_NODE = 133.1156
ARG_OF_PERICENTER = 46.3986
MEAN_ANOMALY   = 313.8827

EPHEMERIS_TYPE = 0
CLASSIFICATION_TYPE = U
NORAD_CAT_ID   = 17567
ELEMENT_SET_NO = 999
REV_AT_EPOCH   = 8175
BSTAR          = .98709796E-4
MEAN_MOTION_DOT = .891E-5
MEAN_MOTION_DDOT = 0

CCSDS_OMM_VERS = 2.0
CREATION_DATE  = 
ORIGINATOR     = 

OBJECT_NAME    = COSMOS 1833
OBJECT_ID      = 1987-027A
CENTER_NAME    = EARTH
REF_FRAME      = TEME
TIME_SYSTEM    = UTC
MEAN_ELEMENT_THEORY = SGP/SGP4

EPOCH          = 2026-01-25T19:41:08.483712
MEAN_MOTION    = 14.13051232
ECCENTRICITY   = .00245606
INCLINATION    = 70.9195
RA_OF_ASC_NODE = 56.1187
ARG_OF_PERICENTER = 271.4102
MEAN_ANOMALY   = 88.4205

EPHEMERIS_TYPE = 0
CLASSIFICATION_TYPE = U
NORAD_CAT_ID   = 17589
ELEMENT_SET_NO = 999
REV_AT_EPOCH   = 426
BSTAR          = .1448809E-3
MEAN_MOTION_DOT = .223E-5
MEAN_MOTION_DDOT = 0

CCSDS_OMM_VERS = 2.0
CREATION_DATE  = 
ORIGINATOR     = 

OBJECT_NAME    = SL-16 R/B
OBJECT_ID      = 1987-027B
CENTER_NAME    = EARTH
REF_FRAME      = TEME
TIME_SYSTEM    = UTC
MEAN_ELEMENT_THEORY = SGP/SGP4

EPOCH          = 2026-01-25T08:28:49.922112
MEAN_MOTION    = 14.17159889
ECCENTRICITY   = .00059394
INCLINATION    = 71.0035
RA_OF_ASC_NODE = 7.8125
ARG_OF_PERICENTER = 211.2958
MEAN_ANOMALY   = 148.7813

EPHEMERIS_TYPE = 0
CLASSIFICATION_TYPE = U
NORAD_CAT_ID   = 17590
ELEMENT_SET_NO = 999
REV_AT_EPOCH   = 920
BSTAR          = .74623367E-4
MEAN_MOTION_DOT = .103E-5
MEAN_MOTION_DDOT = 0

CCSDS_OMM_VERS = 2.0
CREATION_DATE  = 
ORIGINATOR     = 

OBJECT_NAME    = SL-14 R/B
OBJECT_ID      = 1987-038B
CENTER_NAME    = EARTH
REF_FRAME      = TEME
TIME_SYSTEM    = UTC
MEAN_ELEMENT_THEORY = SGP/SGP4

EPOCH          = 2026-01-25T20:32:56.406624
MEAN_MOTION    = 14.85319663
ECCENTRICITY   = .0018054
INCLINATION    = 82.5036
RA_OF_ASC_NODE = 337.1462
ARG_OF_PERICENTER = 309.6013
MEAN_ANOMALY   = 50.3608

EPHEMERIS_TYPE = 0
CLASSIFICATION_TYPE = U
NORAD_CAT_ID   = 17912
ELEMENT_SET_NO = 999
REV_AT_EPOCH   = 7287
BSTAR          = .11194487E-3
MEAN_MOTION_DOT = .988E-5
MEAN_MOTION_DDOT = 0

CCSDS_OMM_VERS = 2.0
CREATION_DATE  = 
ORIGINATOR     = 

OBJECT_NAME    = COSMOS 1844
OBJECT_ID      = 1987-041A
CENTER_NAME    = EARTH
REF_FRAME      = TEME
TIME_SYSTEM    = UTC
MEAN_ELEMENT_THEORY = SGP/SGP4

EPOCH          = 2026-01-25T16:31:25.844448
MEAN_MOTION    = 14.14534945
ECCENTRICITY   = .00284289
INCLINATION    = 70.8990
RA_OF_ASC_NODE = 124.8788
ARG_OF_PERICENTER = 86.9033
MEAN_ANOMALY   = 273.5341

EPHEMERIS_TYPE = 0
CLASSIFICATION_TYPE = U
NORAD_CAT_ID   = 17973
ELEMENT_SET_NO = 999
REV_AT_EPOCH   = 99750
BSTAR          = -.41594299E-4
MEAN_MOTION_DOT = -.128E-5
MEAN_MOTION_DDOT = 0

CCSDS_OMM_VERS = 2.0
CREATION_DATE  = 
ORIGINATOR     = 

OBJECT_NAME    = SL-14 R/B
OBJECT_ID      = 1987-055B
CENTER_NAME    = EARTH
REF_FRAME      = TEME
TIME_SYSTEM    = UTC
MEAN_ELEMENT_THEORY = SGP/SGP4

EPOCH          = 2026-01-25T23:24:19.918656
MEAN_MOTION    = 14.85574600
ECCENTRICITY   = .0021385
INCLINATION    = 82.4978
RA_OF_ASC_NODE = 29.2881
ARG_OF_PERICENTER = 150.9513
MEAN_ANOMALY   = 209.2898

EPHEMERIS_TYPE = 0
CLASSIFICATION_TYPE = U
NORAD_CAT_ID   = 18153
ELEMENT_SET_NO = 999
REV_AT_EPOCH   = 6359
BSTAR          = .93828972E-4
MEAN_MOTION_DOT = .839E-5
MEAN_MOTION_DDOT = 0

CCSDS_OMM_VERS = 2.0
CREATION_DATE  = 
ORIGINATOR     = 

OBJECT_NAME    = COSMOS 1867
OBJECT_ID      = 1987-060A
CENTER_NAME    = EARTH
REF_FRAME      = TEME
TIME_SYSTEM    = UTC
MEAN_ELEMENT_THEORY = SGP/SGP4

EPOCH          = 2026-01-25T13:06:28.846944
MEAN_MOTION    = 14.31495306
ECCENTRICITY   = .0013965
INCLINATION    = 65.0102
RA_OF_ASC_NODE = 67.5270
ARG_OF_PERICENTER = 275.3083
MEAN_ANOMALY   = 84.6407

EPHEMERIS_TYPE = 0
CLASSIFICATION_TYPE = U
NORAD_CAT_ID   = 18187
ELEMENT_SET_NO = 999
REV_AT_EPOCH   = 1376
BSTAR          = .48113E-4
MEAN_MOTION_DOT = .28E-6
MEAN_MOTION_DDOT = 0

CCSDS_OMM_VERS = 2.0
CREATION_DATE  = 
ORIGINATOR     = 

OBJECT_NAME    = SL-14 R/B
OBJECT_ID      = 1988-001B
CENTER_NAME    = EARTH
REF_FRAME      = TEME
TIME_SYSTEM    = UTC
MEAN_ELEMENT_THEORY = SGP/SGP4

EPOCH          = 2026-01-25T07:03:27.761184
MEAN_MOTION    = 14.85475119
ECCENTRICITY   = .0018765
INCLINATION    = 82.5104
RA_OF_ASC_NODE = 236.1808
ARG_OF_PERICENTER = 26.2859
MEAN_ANOMALY   = 333.9305

EPHEMERIS_TYPE = 0
CLASSIFICATION_TYPE = U
NORAD_CAT_ID   = 18749
ELEMENT_SET_NO = 999
REV_AT_EPOCH   = 3558
BSTAR          = .79979E-4
MEAN_MOTION_DOT = .716E-5
MEAN_MOTION_DDOT = 0

