SL-14 R/B               
1 16792U 86046B   26025.96901392  .00000851  00000+0  95274-4 0  9997
2 16792  82.4833 120.5468 0023386  13.0050 347.1764 14.85545127120065
SL-14 R/B               
1 16882U 86055B   26025.84813165  .00001045  00000+0  11757-3 0  9993
2 16882  82.5220 166.9259 0020315 112.3602  39.1002 14.85590959113005
AJISAI (EGS)            
1 16908U 86061A   26026.01395620 -.00000082  00000+0  10867-3 0  9992
2 16908  50.0062 224.5766 0011276 177.3166 349.5546 12.44515243462682
COSMOS 1812             
1 17295U 87003A   26025.59164285  .00241849  00000+0  87116-3 0  9990
2 17295  82.4802 244.1486 0001205  32.5972 327.5373 15.88080509137583
SL-14 R/B               
1 17567U 87024B   26025.74864277  .00000891  00000+0  98710-4 0  9993
2 17567  82.5303 133.1156 0019299  46.3986 313.8827 14.86085536 81754
COSMOS 1833             
1 17589U 87027A   26025.82023708  .00000223  00000+0  14488-3 0  9993
2 17589  70.9195  56.1187 0024560 271.4102  88.4205 14.13051232  4266
SL-16 R/B               
1 17590U 87027B   26025.35335558  .00000103  00000+0  74623-4 0  9997
2 17590  71.0035   7.8125 0005939 211.2958 148.7813 14.17159889  9203
SL-14 R/B               
1 17912U 87038B   26025.85620841  .00000988  00000+0  11194-3 0  9998
2 17912  82.5036 337.1462 0018054 309.6013  50.3608 14.85319663 72874
COSMOS 1844             
1 17973U 87041A   26025.68849357 -.00000128  00000+0 -41594-4 0  9991
2 17973  70.8990 124.8788 0028428  86.9033 273.5341 14.14534945997508
SL-14 R/B               
1 18153U 87055B   26025.97523054  .00000839  00000+0  93829-4 0  9997
2 18153  82.4978  29.2881 0021385 150.9513 209.2898 14.85574600 63592
COSMOS 1867             
1 18187U 87060A   26025.54616721  .00000028  00000+0  48113-4 0  9993
2 18187  65.0102  67.5270 0013965 275.3083  84.6407 14.31495306 13762
SL-14 R/B               
1 18749U 88001B   26025.29407131  .00000716  00000+0  79979-4 0  9996
2 18749  82.5104 236.1808 0018765  26.2859 333.9305 14.85475119 35580
